EUTELSAT 7A             
1 28187U 04008A   25275.61335218  .00000107  00000+0  00000+0 0  9994
2 28187   5.1706  75.0680 0000886 124.6618 253.4649  1.00272781 78773
EUTELSAT 174A           
1 28924U 05052A   25275.88956500  .00000013  00000+0  00000+0 0  9991
2 28924   3.5616  79.7066 0006196 112.2052 314.2069  1.00271019 49759
EUTELSAT HOTBIRD 13B    
1 29270U 06032A   25275.93298517  .00000157  00000+0  00000+0 0  9997
2 29270   0.9905  85.0404 0003849  96.2212 199.6194  1.00270017 44726
EUTELSAT HOTBIRD 13C    
1 33459U 08065A   25275.92397181 -.00000098  00000+0  00000+0 0  9990
2 33459   2.2826  82.2290 0005174 131.0697 118.7416  1.00272101 44766
EUTELSAT 36B            
1 36101U 09065A   25275.93645186  .00000000  00000+0  00000+0 0  9992
2 36101   0.0229  21.0253 0006028 176.5094 201.9633  1.00270577 58126
EUTELSAT KA-SAT 9A      
1 37258U 10069A   25275.78547296  .00000062  00000+0  00000+0 0  9996
2 37258   0.0572 325.3458 0002651 197.4396 140.7633  1.00269282 41429
EUTELSAT 7 WEST A       
1 37816U 11051A   25275.92501181 -.00000060  00000+0  00000+0 0  9996
2 37816   0.0637   9.3521 0006436 182.4182 145.8338  1.00271784 51309
EUTELSAT 16A            
1 37836U 11057A   25275.92960516  .00000104  00000+0  00000+0 0  9993
2 37836   0.0658   8.5967 0005391 184.7813 169.1621  1.00272686  4746
